ION SCV-004             
1 50993U 22002K   26068.68892644  .00006538  00000+0  23198-3 0  9998
2 50993  97.2961 128.2294 0007216   1.6783 358.4480 15.29369331230088
STARLINK-34098          
1 64080U 25107S   26068.43440538  .00028649  00000+0  10460-2 0  9997
2 64080  42.9976 202.7882 0002037 184.0291 176.0544 15.27598783 46083
